$$SOE
2461295.500000000, A.D. 2026-Sep-12 00:00:00.0000, 1.953810918022418E+07, 4.883778198486128E+08, 9.435937716335312E+07,
2461302.500000000, A.D. 2026-Sep-19 00:00:00.0000, 9.981507980329044E+06, 4.891461367255261E+08, 9.293466845469919E+07,
2461309.500000000, A.D. 2026-Sep-26 00:00:00.0000, 4.208635958304781E+05, 4.897221768094720E+08, 9.147340647212249E+07,
2461316.500000000, A.D. 2026-Oct-03 00:00:00.0000, -9.140069743121248E+06, 4.901059377869474E+08, 8.997620781546780E+07,
2461323.500000000, A.D. 2026-Oct-10 00:00:00.0000, -1.869754600938974E+07, 4.902974842168536E+08, 8.844370018571991E+07,
2461330.500000000, A.D. 2026-Oct-17 00:00:00.0000, -2.824782838151137E+07, 4.902969472652241E+08, 8.687652217311576E+07,
2461337.500000000, A.D. 2026-Oct-24 00:00:00.0000, -3.778719024518234E+07, 4.901045243407555E+08, 8.527532303913394E+07,
2461344.500000000, A.D. 2026-Oct-31 00:00:00.0000, -4.731191609549287E+07, 4.897204785649599E+08, 8.364076247802708E+07,
2461351.500000000, A.D. 2026-Nov-07 00:00:00.0000, -5.681830200164457E+07, 4.891451381516347E+08, 8.197351033310595E+07,
2461358.500000000, A.D. 2026-Nov-14 00:00:00.0000, -6.630265543410591E+07, 4.883788965842190E+08, 8.027424632228705E+07,
2461365.500000000, A.D. 2026-Nov-21 00:00:00.0000, -7.576129626589696E+07, 4.874222142745298E+08, 7.854365999519876E+07,
2461372.500000000, A.D. 2026-Nov-28 00:00:00.0000, -8.519055994499373E+07, 4.862756186942317E+08, 7.678245076736867E+07,
2461379.500000000, A.D. 2026-Dec-05 00:00:00.0000, -9.458679921900658E+07, 4.849397023208737E+08, 7.499132764566275E+07,
2461386.500000000, A.D. 2026-Dec-12 00:00:00.0000, -1.039463842482066E+08, 4.834151215102266E+08, 7.317100888440526E+07,
2461393.500000000, A.D. 2026-Dec-19 00:00:00.0000, -1.132657029937978E+08, 4.817025963012739E+08, 7.132222174573871E+07,
2461400.500000000, A.D. 2026-Dec-26 00:00:00.0000, -1.225411620243412E+08, 4.798029102843065E+08, 6.944570230614343E+07,
2461407.500000000, A.D. 2027-Jan-02 00:00:00.0000, -1.317691874661401E+08, 4.777169103403869E+08, 6.754219526833233E+07,
2461414.500000000, A.D. 2027-Jan-09 00:00:00.0000, -1.409462259825831E+08, 4.754455062725545E+08, 6.561245376975304E+07,
2461421.500000000, A.D. 2027-Jan-16 00:00:00.0000, -1.500687457489865E+08, 4.729896703381677E+08, 6.365723918542731E+07,
2461428.500000000, A.D. 2027-Jan-23 00:00:00.0000, -1.591332373787863E+08, 4.703504366431274E+08, 6.167732091772714E+07,
2461435.500000000, A.D. 2027-Jan-30 00:00:00.0000, -1.681362146153269E+08, 4.675289003501710E+08, 5.967347615185568E+07,
2461442.500000000, A.D. 2027-Feb-06 00:00:00.0000, -1.770742143668018E+08, 4.645262170410683E+08, 5.764648956570265E+07,
2461449.500000000, A.D. 2027-Feb-13 00:00:00.0000, -1.859437965472276E+08, 4.613436034528061E+08, 5.559715313587457E+07,
2461456.500000000, A.D. 2027-Feb-20 00:00:00.0000, -1.947415460888596E+08, 4.579823387978069E+08, 5.352626619188097E+07,
2461463.500000000, A.D. 2027-Feb-27 00:00:00.0000, -2.034640757301011E+08, 4.544437634534277E+08, 5.143463532729009E+07,
2461470.500000000, A.D. 2027-Mar-06 00:00:00.0000, -2.121080265623684E+08, 4.507292769415400E+08, 4.932307404779941E+07,
2461477.500000000, A.D. 2027-Mar-13 00:00:00.0000, -2.206700679380012E+08, 4.468403372487408E+08, 4.719240247038922E+07,
2461484.500000000, A.D. 2027-Mar-20 00:00:00.0000, -2.291468978686753E+08, 4.427784606532909E+08, 4.504344710861984E+07,
2461491.500000000, A.D. 2027-Mar-27 00:00:00.0000, -2.375352437121586E+08, 4.385452215092571E+08, 4.287704068028447E+07,
2461498.500000000, A.D. 2027-Apr-03 00:00:00.0000, -2.458318629447573E+08, 4.341422519394408E+08, 4.069402191459322E+07,
2461505.500000000, A.D. 2027-Apr-10 00:00:00.0000, -2.540335439585808E+08, 4.295712414596571E+08, 3.849523535491601E+07,
2461512.500000000, A.D. 2027-Apr-17 00:00:00.0000, -2.621371068619072E+08, 4.248339365196333E+08, 3.628153115368569E+07,
2461519.500000000, A.D. 2027-Apr-24 00:00:00.0000, -2.701394042037489E+08, 4.199321398979134E+08, 3.405376484694105E+07,
2461526.500000000, A.D. 2027-May-01 00:00:00.0000, -2.780373213232899E+08, 4.148677099780399E+08, 3.181279708315098E+07,
2461533.500000000, A.D. 2027-May-08 00:00:00.0000, -2.858277760173421E+08, 4.096425606538517E+08, 2.955949333917007E+07,
2461540.500000000, A.D. 2027-May-15 00:00:00.0000, -2.935077190236965E+08, 4.042586628174583E+08, 2.729472383844191E+07,
2461547.500000000, A.D. 2027-May-22 00:00:00.0000, -3.010741368843057E+08, 3.987180448390272E+08, 2.501936360292125E+07,
2461554.500000000, A.D. 2027-May-29 00:00:00.0000, -3.085240538310271E+08, 3.930227905686617E+08, 2.273429221077421E+07,
2461561.500000000, A.D. 2027-Jun-05 00:00:00.0000, -3.158545318098163E+08, 3.871750379900801E+08, 2.044039343464184E+07,
2461568.500000000, A.D. 2027-Jun-12 00:00:00.0000, -3.230626706525013E+08, 3.811769789583459E+08, 1.813855497987527E+07,
2461575.500000000, A.D. 2027-Jun-19 00:00:00.0000, -3.301456087273278E+08, 3.750308590870188E+08, 1.582966827664101E+07,
2461582.500000000, A.D. 2027-Jun-26 00:00:00.0000, -3.371005237887467E+08, 3.687389775228323E+08, 1.351462827890322E+07,
2461589.500000000, A.D. 2027-Jul-03 00:00:00.0000, -3.439246338945306E+08, 3.623036866154905E+08, 1.119433325888385E+07,
2461596.500000000, A.D. 2027-Jul-10 00:00:00.0000, -3.506151983537618E+08, 3.557273914907856E+08, 8.869684594385386E+06,
2461603.500000000, A.D. 2027-Jul-17 00:00:00.0000, -3.571695186697141E+08, 3.490125494877988E+08, 6.541586542517468E+06,
2461610.500000000, A.D. 2027-Jul-24 00:00:00.0000, -3.635849393213931E+08, 3.421616693970969E+08, 4.210945980365559E+06,
2461617.500000000, A.D. 2027-Jul-31 00:00:00.0000, -3.698588479721822E+08, 3.351773107350708E+08, 1.878672094106078E+06,
2461624.500000000, A.D. 2027-Aug-07 00:00:00.0000, -3.759886753060547E+08, 3.280620842055534E+08, -4.543238709557354E+05,
2461631.500000000, A.D. 2027-Aug-14 00:00:00.0000, -3.819718967924159E+08, 3.208186530950978E+08, -2.787128609237626E+06,
2461638.500000000, A.D. 2027-Aug-21 00:00:00.0000, -3.878060357601416E+08, 3.134497322373985E+08, -5.118826834397182E+06,
2461645.500000000, A.D. 2027-Aug-28 00:00:00.0000, -3.934886643474774E+08, 3.059580857472579E+08, -7.448501655713454E+06,
2461652.500000000, A.D. 2027-Sep-04 00:00:00.0000, -3.990174035097381E+08, 2.983465260232251E+08, -9.775234938467860E+06,
2461659.500000000, A.D. 2027-Sep-11 00:00:00.0000, -4.043899234826722E+08, 2.906179133571975E+08, -1.209810757475199E+07,
2461666.500000000, A.D. 2027-Sep-18 00:00:00.0000, -4.096039445696989E+08, 2.827751555015661E+08, -1.441619973052783E+07,
2461673.500000000, A.D. 2027-Sep-25 00:00:00.0000, -4.146572380245417E+08, 2.748212071168995E+08, -1.672859109675165E+07,
2461680.500000000, A.D. 2027-Oct-02 00:00:00.0000, -4.195476269540805E+08, 2.667590691280935E+08, -1.903436114964548E+07,
2461687.500000000, A.D. 2027-Oct-09 00:00:00.0000, -4.242729872184985E+08, 2.585917879845548E+08, -2.133258942292814E+07,
2461694.500000000, A.D. 2027-Oct-16 00:00:00.0000, -4.288312482649294E+08, 2.503224547693121E+08, -2.362235580256738E+07,
2461701.500000000, A.D. 2027-Oct-23 00:00:00.0000, -4.332203936340308E+08, 2.419542041508940E+08, -2.590274086852848E+07,
2461708.500000000, A.D. 2027-Oct-30 00:00:00.0000, -4.374384607641090E+08, 2.334902137875657E+08, -2.817282626807323E+07,
2461715.500000000, A.D. 2027-Nov-06 00:00:00.0000, -4.414835412561029E+08, 2.249337053111821E+08, -3.043169492176361E+07,
2461722.500000000, A.D. 2027-Nov-13 00:00:00.0000, -4.453537835856557E+08, 2.162879448143279E+08, -3.267843104996669E+07,
2461729.500000000, A.D. 2027-Nov-20 00:00:00.0000, -4.490473953599547E+08, 2.075562406554675E+08, -3.491212046465830E+07,
2461736.500000000, A.D. 2027-Nov-27 00:00:00.0000, -4.525626434996589E+08, 1.987419415455017E+08, -3.713185103211925E+07,
2461743.500000000, A.D. 2027-Dec-04 00:00:00.0000, -4.558978543692465E+08, 1.898484358279106E+08, -3.933671304597222E+07,
2461750.500000000, A.D. 2027-Dec-11 00:00:00.0000, -4.590514144071764E+08, 1.808791509882135E+08, -4.152579953888436E+07,
2461757.500000000, A.D. 2027-Dec-18 00:00:00.0000, -4.620217709808009E+08, 1.718375530538067E+08, -4.369820658575419E+07,
2461764.500000000, A.D. 2027-Dec-25 00:00:00.0000, -4.648074333133978E+08, 1.627271458818074E+08, -4.585303361223128E+07,
2461771.500000000, A.D. 2028-Jan-01 00:00:00.0000, -4.674069734412738E+08, 1.535514703490826E+08, -4.798938371087275E+07,
$$EOE